NORAD_CAT_ID,OBJECT_NAME,OBJECT_TYPE,EPOCH,MEAN_MOTION,ECCENTRICITY,INCLINATION,RA_OF_ASC_NODE,ARG_OF_PERICENTER,MEAN_ANOMALY,BSTAR,MEAN_MOTION_DOT,MEAN_MOTION_DDOT,TLE_LINE0,TLE_LINE1,TLE_LINE2,SEMIMAJOR_AXIS,PERIOD,APOGEE,PERIGEE,DECAYED
53624.0,STARLINK-4596,PAYLOAD,2022-11-20 06:00:00,15.08820988,0.0001616,53.2158,245.3052,50.7708,105.6988,0.0012429,0.00019538,0.0,0 STARLINK-4596,1 53624U 22104AN  22324.25001157  .00019538  00000-0  12429-2 0  9999,2 53624  53.2158 245.3052 0001616  50.7708 105.6988 15.08820988 13086,6917.939,95.439,540.9209999999998,538.686,0.0
53624.0,STARLINK-4596,PAYLOAD,2022-11-20 14:00:01,15.08812331,0.0001422,53.2158,243.8072,57.1752,110.8804,0.0020921,0.00033139,0.0,0 STARLINK-4596,1 53624U 22104AN  22324.58334491  .00033139  00000-0  20921-2 0  9994,2 53624  53.2158 243.8072 0001422  57.1752 110.8804 15.08812331  1306,6917.965,95.439,540.814,538.846,0.0
53624.0,STARLINK-4596,PAYLOAD,2022-11-20 22:00:00,15.088522,0.0001508,53.2159,242.3115,59.1335,120.4945,-0.001149,-0.00018534,0.0,0 STARLINK-4596,1 53624U 22104AN  22324.91667824 -.00018534  00000-0 -11490-2 0  9995,2 53624  53.2159 242.3115 0001508  59.1335 120.4945 15.08852200  1305,6917.843000000003,95.437,540.751,538.665,0.0
53624.0,STARLINK-4596,PAYLOAD,2022-11-21 06:00:00,15.08840081,0.0001668,53.2155,240.8161,53.2375,137.9932,0.00055141,8.499e-05,0.0,0 STARLINK-4596,1 53624U 22104AN  22325.25001157  .00008499  00000-0  55141-3 0  9993,2 53624  53.2155 240.8161 0001668  53.2375 137.9932 15.08840081 13239,6917.88,95.438,540.899,538.591,0.0
53624.0,STARLINK-4596,PAYLOAD,2022-11-21 14:00:01,15.08811377,0.0001589,53.2155,239.318,61.6149,141.2253,0.002673,0.00042476,0.0,0 STARLINK-4596,1 53624U 22104AN  22325.58334491  .00042476  00000-0  26730-2 0  9993,2 53624  53.2155 239.3180 0001589  61.6149 141.2253 15.08811377  1302,6917.968000000003,95.439,540.932,538.734,0.0
53624.0,STARLINK-4596,PAYLOAD,2022-11-22 00:00:00,15.088472400000002,0.0001732,53.2154,237.4489,59.2827,248.0337,-0.00048302,-7.969e-05,0.0,0 STARLINK-4596,1 53624U 22104AN  22326.00001157 -.00007969  00000-0 -48302-3 0  9991,2 53624  53.2154 237.4489 0001732  59.2827 248.0337 15.08847240  1305,6917.858,95.437,540.9209999999998,538.525,0.0
53624.0,STARLINK-4596,PAYLOAD,2022-11-22 06:00:02,15.0884521,0.000173,53.2153,236.327,55.5022,170.5775,0.0002832,4.223e-05,0.0,0 STARLINK-4596,1 53624U 22104AN  22326.25002315  .00004223  00000-0  28320-3 0  9991,2 53624  53.2153 236.3270 0001730  55.5022 170.5775 15.08845210 13385,6917.864000000001,95.437,540.9259999999998,538.533,0.0
53624.0,STARLINK-4596,PAYLOAD,2022-11-22 14:00:01,15.08809008,0.0001568,53.2153,234.8288,60.4988,177.1978,0.0028161,0.00044777,0.0,0 STARLINK-4596,1 53624U 22104AN  22326.58335648  .00044777  00000-0  28161-2 0  9995,2 53624  53.2153 234.8288 0001568  60.4988 177.1978 15.08809008  1304,6917.975,95.44,540.925,538.755,0.0
53624.0,STARLINK-4596,PAYLOAD,2022-11-22 22:00:00,15.0885659,0.0001654,53.2154,233.3336,59.4066,189.798,-0.0024148,-0.00038532,0.0,0 STARLINK-4596,1 53624U 22104AN  22326.91667824 -.00038532  00000-0 -24148-2 0  9991,2 53624  53.2154 233.3336 0001654  59.4066 189.7980 15.08856590  1304,6917.83,95.437,540.839,538.55,0.0
53624.0,STARLINK-4596,PAYLOAD,2022-11-23 08:00:01,15.0883408,0.0001641999999999,53.2151,231.4633,52.4003,301.2975,-0.00095493,-0.00015451,0.0,0 STARLINK-4596,1 53624U 22104AN  22327.33334491 -.00015451  00000-0 -95493-3 0  9996,2 53624  53.2151 231.4633 0001642  52.4003 301.2975 15.08834080 13556,6917.898,95.438,540.899,538.628,0.0
53624.0,STARLINK-4596,PAYLOAD,2022-11-23 14:00:01,15.08803105,0.0001558,53.2153,230.3398,58.4601,213.9305,0.0031,0.00049344,0.0,0 STARLINK-4596,1 53624U 22104AN  22327.58334491  .00049344  00000-0  31000-2 0  9992,2 53624  53.2153 230.3398 0001558  58.4601 213.9305 15.08803105  1300,6917.993,95.44,540.936,538.78,0.0
53624.0,STARLINK-4596,PAYLOAD,2022-11-23 22:00:00,15.08846462,0.0001693,53.2153,228.8446,57.2512,226.709,-0.0010519,-0.00016993,0.0,0 STARLINK-4596,1 53624U 22104AN  22327.91667824 -.00016993  00000-0 -10519-2 0  9996,2 53624  53.2153 228.8446 0001693  57.2512 226.7090 15.08846462  1300,6917.861,95.437,540.8969999999998,538.554,0.0
53624.0,STARLINK-4596,PAYLOAD,2022-11-24 08:00:01,15.08872466,0.0001702,53.2152,226.9742,52.1484,336.2990000000001,-0.0040418,-0.00064099,0.0,0 STARLINK-4596,1 53624U 22104AN  22328.33334491 -.00064099  00000-0 -40418-2 0  9995,2 53624  53.2152 226.9742 0001702  52.1484 336.2990 15.08872466 13706,6917.781,95.436,540.8240000000002,538.469,0.0
53624.0,STARLINK-4596,PAYLOAD,2022-11-24 14:00:01,15.08806721,0.0001573,53.2153,225.8507,57.6114,249.5562,0.0024782,0.00039337,0.0,0 STARLINK-4596,1 53624U 22104AN  22328.58334491  .00039337  00000-0  24782-2 0  9993,2 53624  53.2153 225.8507 0001573  57.6114 249.5562 15.08806721  1305,6917.982,95.44,540.935,538.759,0.0
53624.0,STARLINK-4596,PAYLOAD,2022-11-24 22:00:00,15.08841134,0.0001698,53.2153,224.3556,54.9717,263.7647,-0.0010934,-0.00017648,0.0,0 STARLINK-4596,1 53624U 22104AN  22328.91667824 -.00017648  00000-0 -10934-2 0  9996,2 53624  53.2153 224.3556 0001698  54.9717 263.7647 15.08841134 13795,6917.877,95.437,540.9169999999998,538.567,0.0
53624.0,STARLINK-4596,PAYLOAD,2022-11-25 14:00:01,15.08822075,0.0001619,53.2152,221.3617,58.3822,283.5486,0.0035804,0.00057128,0.0,0 STARLINK-4596,1 53624U 22104AN  22329.58334491  .00057128  00000-0  35804-2 0  9999,2 53624  53.2152 221.3617 0001619  58.3822 283.5486 15.08822075 13892,6917.935,95.439,540.92,538.68,0.0
53624.0,STARLINK-4596,PAYLOAD,2022-11-26 00:00:00,15.088624,0.0001756,53.2152,219.4929,53.4662,32.9737,-0.0022695,-0.00036248,0.0,0 STARLINK-4596,1 53624U 22104AN  22330.00001157 -.00036248  00000-0 -22695-2 0  9994,2 53624  53.2152 219.4929 0001756  53.4662  32.9737 15.08862400  1300,6917.812,95.436,540.8919999999998,538.462,0.0
53624.0,STARLINK-4596,PAYLOAD,2022-11-26 06:00:00,15.08847513,0.0001716,53.2148,218.3704,49.99100000000001,315.1549,0.00040019,6.088e-05,0.0,0 STARLINK-4596,1 53624U 22104AN  22330.25001157  .00006088  00000-0  40019-3 0  9999,2 53624  53.2148 218.3704 0001716  49.9910 315.1549 15.08847513 13999,6917.857,95.437,540.91,538.535,0.0
53624.0,STARLINK-4596,PAYLOAD,2022-11-26 14:00:01,15.08839841,0.0001604,53.2149,216.8724,58.8608,317.8961,0.00051636,7.939e-05,0.0,0 STARLINK-4596,1 53624U 22104AN  22330.58334491  .00007939  00000-0  51636-3 0  9998,2 53624  53.2149 216.8724 0001604  58.8608 317.8961 15.08839841  1308,6917.880999999999,95.438,540.856,538.636,0.0
53624.0,STARLINK-4596,PAYLOAD,2022-11-26 22:00:00,15.08847436,0.0001783,53.2149,215.3774,56.2717,332.0832,-0.0018341,-0.00029366,0.0,0 STARLINK-4596,1 53624U 22104AN  22330.91667824 -.00029366  00000-0 -18341-2 0  9999,2 53624  53.2149 215.3774 0001783  56.2717 332.0832 15.08847436  1303,6917.858,95.437,540.956,538.489,0.0
53624.0,STARLINK-4596,PAYLOAD,2022-11-27 06:00:00,15.08838175,0.0001748,53.2145,213.881,52.6689,347.278,-0.0016890999999999,-0.00027068,0.0,0 STARLINK-4596,1 53624U 22104AN  22331.25001157 -.00027068  00000-0 -16891-2 0  9993,2 53624  53.2145 213.8810 0001748  52.6689 347.2780 15.08838175 14148,6917.886,95.438,540.96,538.5419999999998,0.0
53624.0,STARLINK-4596,PAYLOAD,2022-11-27 14:00:01,15.08797239,0.0001587,53.2145,212.3832,60.3764,351.155,0.0032298,0.00051429,0.0,0 STARLINK-4596,1 53624U 22104AN  22331.58334491  .00051429  00000-0  32298-2 0  9994,2 53624  53.2145 212.3832 0001587  60.3764 351.1550 15.08797239  1305,6918.011,95.44,540.974,538.778,0.0
53624.0,STARLINK-4596,PAYLOAD,2022-11-27 22:00:00,15.08835049,0.0001742,53.2145,210.8884,56.5812,6.5155,-0.001148,-0.0001851,0.0,0 STARLINK-4596,1 53624U 22104AN  22331.91667824 -.00018510  00000-0 -11480-2 0  9996,2 53624  53.2145 210.8884 0001742  56.5812   6.5155 15.08835049  1303,6917.896,95.438,540.966,538.555,0.0
53624.0,STARLINK-4596,PAYLOAD,2022-11-28 00:00:00,15.08822357,0.0001774999999999,53.2145,210.5146,55.4777,100.5179,0.00050905,7.819e-05,0.0,0 STARLINK-4596,1 53624U 22104AN  22332.00001157  .00007819  00000-0  50905-3 0  9992,2 53624  53.2145 210.5146 0001775  55.4777 100.5179 15.08822357 14252,6917.934,95.439,541.0269999999998,538.571,0.0
53624.0,STARLINK-4596,PAYLOAD,2022-11-28 22:00:01,15.08852507,0.0001776999999999,53.2141,206.3992,58.2709,39.6605,-0.00098536,-0.00015941,0.0,0 STARLINK-4596,1 53624U 22104AN  22332.91668981 -.00015941  00000-0 -98536-3 0  9995,2 53624  53.2141 206.3992 0001777  58.2709  39.6605 15.08852507  1306,6917.842,95.437,540.936,538.4780000000002,0.0
53624.0,STARLINK-4596,PAYLOAD,2022-11-29 06:00:00,15.08871678,0.0001732,53.2138,204.9024,55.57100000000001,53.8978,-0.0040320999999999,-0.00063946,0.0,0 STARLINK-4596,1 53624U 22104AN  22333.25001157 -.00063946  00000-0 -40321-2 0  9995,2 53624  53.2138 204.9024 0001732  55.5710  53.8978 15.08871678 14445,6917.784000000002,95.436,540.847,538.45,0.0
53624.0,STARLINK-4596,PAYLOAD,2022-11-29 14:00:01,15.08814704,0.0001599,53.214,203.4046,62.6584,58.483,0.0024756,0.00039304,0.0,0 STARLINK-4596,1 53624U 22104AN  22333.58335648  .00039304  00000-0  24756-2 0  9999,2 53624  53.2140 203.4046 0001599  62.6584  58.4830 15.08814704  1301,6917.958000000001,95.439,540.929,538.717,0.0
53624.0,STARLINK-4596,PAYLOAD,2022-11-29 22:00:00,15.08839114,0.0001753,53.214,201.9099,57.239,75.4225,-0.00056328,-9.241e-05,0.0,0 STARLINK-4596,1 53624U 22104AN  22333.91667824 -.00009241  00000-0 -56328-3 0  9990,2 53624  53.2140 201.9099 0001753  57.2390  75.4225 15.08839114 14548,6917.8830000000025,95.438,540.961,538.535,0.0
53624.0,STARLINK-4596,PAYLOAD,2022-11-30 14:00:01,15.08833702,0.0001604,53.2143,198.9147,62.5273,93.3917,-3.4481e-05,-8.37e-06,0.0,0 STARLINK-4596,1 53624U 22104AN  22334.58335648 -.00000837  00000-0 -34481-4 0  9999,2 53624  53.2143 198.9147 0001604  62.5273  93.3917 15.08833702  1308,6917.9,95.438,540.874,538.655,0.0
